<?xml version="1.0" encoding="UTF-8"?>
<ndm xmlns:xsi="http://www.w3.org/2001/XMLSchema-instance" xsi:noNamespaceSchemaLocation="https://sanaregistry.org/r/ndmxml_unqualified/ndmxml-2.0.0-master-2.0.xsd">
<omm id="CCSDS_OMM_VERS" version="2.0">
<header><CREATION_DATE/><ORIGINATOR/></header><body><segment><metadata><OBJECT_NAME>KUIPER-00095</OBJECT_NAME><OBJECT_ID>2025-171C</OBJECT_ID><CENTER_NAME>EARTH</CENTER_NAME><REF_FRAME>TEME</REF_FRAME><TIME_SYSTEM>UTC</TIME_SYSTEM><MEAN_ELEMENT_THEORY>SGP4</MEAN_ELEMENT_THEORY></metadata><data><meanElements><EPOCH>2025-08-19T04:00:01.999584</EPOCH><MEAN_MOTION>15.34997048</MEAN_MOTION><ECCENTRICITY>.00055</ECCENTRICITY><INCLINATION>51.8768</INCLINATION><RA_OF_ASC_NODE>7.8391</RA_OF_ASC_NODE><ARG_OF_PERICENTER>173.9180</ARG_OF_PERICENTER><MEAN_ANOMALY>348.1049</MEAN_ANOMALY></meanElements><tleParameters><EPHEMERIS_TYPE>0</EPHEMERIS_TYPE><CLASSIFICATION_TYPE>U</CLASSIFICATION_TYPE><NORAD_CAT_ID>65134</NORAD_CAT_ID><ELEMENT_SET_NO>999</ELEMENT_SET_NO><REV_AT_EPOCH>135</REV_AT_EPOCH><BSTAR>.1057E-2</BSTAR><MEAN_MOTION_DOT>.36241E-3</MEAN_MOTION_DOT><MEAN_MOTION_DDOT>0</MEAN_MOTION_DDOT></tleParameters></data></segment></body></omm>
<omm id="CCSDS_OMM_VERS" version="2.0">
<header><CREATION_DATE/><ORIGINATOR/></header><body><segment><metadata><OBJECT_NAME>KUIPER-00096</OBJECT_NAME><OBJECT_ID>2025-171D</OBJECT_ID><CENTER_NAME>EARTH</CENTER_NAME><REF_FRAME>TEME</REF_FRAME><TIME_SYSTEM>UTC</TIME_SYSTEM><MEAN_ELEMENT_THEORY>SGP4</MEAN_ELEMENT_THEORY></metadata><data><meanElements><EPOCH>2025-08-19T14:00:01.999872</EPOCH><MEAN_MOTION>15.35263230</MEAN_MOTION><ECCENTRICITY>.0005467</ECCENTRICITY><INCLINATION>51.8766</INCLINATION><RA_OF_ASC_NODE>5.8176</RA_OF_ASC_NODE><ARG_OF_PERICENTER>165.1333</ARG_OF_PERICENTER><MEAN_ANOMALY>147.4788</MEAN_ANOMALY></meanElements><tleParameters><EPHEMERIS_TYPE>0</EPHEMERIS_TYPE><CLASSIFICATION_TYPE>U</CLASSIFICATION_TYPE><NORAD_CAT_ID>65135</NORAD_CAT_ID><ELEMENT_SET_NO>999</ELEMENT_SET_NO><REV_AT_EPOCH>227</REV_AT_EPOCH><BSTAR>-.21311E-3</BSTAR><MEAN_MOTION_DOT>-.7789E-4</MEAN_MOTION_DOT><MEAN_MOTION_DDOT>0</MEAN_MOTION_DDOT></tleParameters></data></segment></body></omm>
<omm id="CCSDS_OMM_VERS" version="2.0">
<header><CREATION_DATE/><ORIGINATOR/></header><body><segment><metadata><OBJECT_NAME>KUIPER-00097</OBJECT_NAME><OBJECT_ID>2025-171E</OBJECT_ID><CENTER_NAME>EARTH</CENTER_NAME><REF_FRAME>TEME</REF_FRAME><TIME_SYSTEM>UTC</TIME_SYSTEM><MEAN_ELEMENT_THEORY>SGP4</MEAN_ELEMENT_THEORY></metadata><data><meanElements><EPOCH>2025-08-19T04:00:01.999584</EPOCH><MEAN_MOTION>15.34934721</MEAN_MOTION><ECCENTRICITY>.0005546</ECCENTRICITY><INCLINATION>51.8768</INCLINATION><RA_OF_ASC_NODE>7.8428</RA_OF_ASC_NODE><ARG_OF_PERICENTER>176.3822</ARG_OF_PERICENTER><MEAN_ANOMALY>343.8143</MEAN_ANOMALY></meanElements><tleParameters><EPHEMERIS_TYPE>0</EPHEMERIS_TYPE><CLASSIFICATION_TYPE>U</CLASSIFICATION_TYPE><NORAD_CAT_ID>65136</NORAD_CAT_ID><ELEMENT_SET_NO>999</ELEMENT_SET_NO><REV_AT_EPOCH>143</REV_AT_EPOCH><BSTAR>.10883E-2</BSTAR><MEAN_MOTION_DOT>.37256E-3</MEAN_MOTION_DOT><MEAN_MOTION_DDOT>0</MEAN_MOTION_DDOT></tleParameters></data></segment></body></omm>
<omm id="CCSDS_OMM_VERS" version="2.0">
<header><CREATION_DATE/><ORIGINATOR/></header><body><segment><metadata><OBJECT_NAME>KUIPER-00098</OBJECT_NAME><OBJECT_ID>2025-171F</OBJECT_ID><CENTER_NAME>EARTH</CENTER_NAME><REF_FRAME>TEME</REF_FRAME><TIME_SYSTEM>UTC</TIME_SYSTEM><MEAN_ELEMENT_THEORY>SGP4</MEAN_ELEMENT_THEORY></metadata><data><meanElements><EPOCH>2025-08-19T04:00:01.999584</EPOCH><MEAN_MOTION>15.35630333</MEAN_MOTION><ECCENTRICITY>.0006439</ECCENTRICITY><INCLINATION>51.8773</INCLINATION><RA_OF_ASC_NODE>7.8020</RA_OF_ASC_NODE><ARG_OF_PERICENTER>149.3263</ARG_OF_PERICENTER><MEAN_ANOMALY>31.4942</MEAN_ANOMALY></meanElements><tleParameters><EPHEMERIS_TYPE>0</EPHEMERIS_TYPE><CLASSIFICATION_TYPE>U</CLASSIFICATION_TYPE><NORAD_CAT_ID>65137</NORAD_CAT_ID><ELEMENT_SET_NO>999</ELEMENT_SET_NO><REV_AT_EPOCH>158</REV_AT_EPOCH><BSTAR>.10611E-2</BSTAR><MEAN_MOTION_DOT>.37143E-3</MEAN_MOTION_DOT><MEAN_MOTION_DDOT>0</MEAN_MOTION_DDOT></tleParameters></data></segment></body></omm>
<omm id="CCSDS_OMM_VERS" version="2.0">
<header><CREATION_DATE/><ORIGINATOR/></header><body><segment><metadata><OBJECT_NAME>KUIPER-00099</OBJECT_NAME><OBJECT_ID>2025-171G</OBJECT_ID><CENTER_NAME>EARTH</CENTER_NAME><REF_FRAME>TEME</REF_FRAME><TIME_SYSTEM>UTC</TIME_SYSTEM><MEAN_ELEMENT_THEORY>SGP4</MEAN_ELEMENT_THEORY></metadata><data><meanElements><EPOCH>2025-08-19T04:00:01.999584</EPOCH><MEAN_MOTION>15.35469576</MEAN_MOTION><ECCENTRICITY>.0006177</ECCENTRICITY><INCLINATION>51.8775</INCLINATION><RA_OF_ASC_NODE>7.8149</RA_OF_ASC_NODE><ARG_OF_PERICENTER>154.3541</ARG_OF_PERICENTER><MEAN_ANOMALY>21.1037</MEAN_ANOMALY></meanElements><tleParameters><EPHEMERIS_TYPE>0</EPHEMERIS_TYPE><CLASSIFICATION_TYPE>U</CLASSIFICATION_TYPE><NORAD_CAT_ID>65138</NORAD_CAT_ID><ELEMENT_SET_NO>999</ELEMENT_SET_NO><REV_AT_EPOCH>140</REV_AT_EPOCH><BSTAR>.11229E-2</BSTAR><MEAN_MOTION_DOT>.39134E-3</MEAN_MOTION_DOT><MEAN_MOTION_DDOT>0</MEAN_MOTION_DDOT></tleParameters></data></segment></body></omm>
<omm id="CCSDS_OMM_VERS" version="2.0">
<header><CREATION_DATE/><ORIGINATOR/></header><body><segment><metadata><OBJECT_NAME>KUIPER-00100</OBJECT_NAME><OBJECT_ID>2025-171H</OBJECT_ID><CENTER_NAME>EARTH</CENTER_NAME><REF_FRAME>TEME</REF_FRAME><TIME_SYSTEM>UTC</TIME_SYSTEM><MEAN_ELEMENT_THEORY>SGP4</MEAN_ELEMENT_THEORY></metadata><data><meanElements><EPOCH>2025-08-19T04:00:01.999584</EPOCH><MEAN_MOTION>15.35301402</MEAN_MOTION><ECCENTRICITY>.0005887</ECCENTRICITY><INCLINATION>51.8767</INCLINATION><RA_OF_ASC_NODE>7.8194</RA_OF_ASC_NODE><ARG_OF_PERICENTER>159.8057</ARG_OF_PERICENTER><MEAN_ANOMALY>10.9525</MEAN_ANOMALY></meanElements><tleParameters><EPHEMERIS_TYPE>0</EPHEMERIS_TYPE><CLASSIFICATION_TYPE>U</CLASSIFICATION_TYPE><NORAD_CAT_ID>65139</NORAD_CAT_ID><ELEMENT_SET_NO>999</ELEMENT_SET_NO><REV_AT_EPOCH>170</REV_AT_EPOCH><BSTAR>.10639E-2</BSTAR><MEAN_MOTION_DOT>.36844E-3</MEAN_MOTION_DOT><MEAN_MOTION_DDOT>0</MEAN_MOTION_DDOT></tleParameters></data></segment></body></omm>
<omm id="CCSDS_OMM_VERS" version="2.0">
<header><CREATION_DATE/><ORIGINATOR/></header><body><segment><metadata><OBJECT_NAME>KUIPER-00102</OBJECT_NAME><OBJECT_ID>2025-171J</OBJECT_ID><CENTER_NAME>EARTH</CENTER_NAME><REF_FRAME>TEME</REF_FRAME><TIME_SYSTEM>UTC</TIME_SYSTEM><MEAN_ELEMENT_THEORY>SGP4</MEAN_ELEMENT_THEORY></metadata><data><meanElements><EPOCH>2025-08-19T04:00:01.999584</EPOCH><MEAN_MOTION>15.34980169</MEAN_MOTION><ECCENTRICITY>.0005354</ECCENTRICITY><INCLINATION>51.8764</INCLINATION><RA_OF_ASC_NODE>7.8353</RA_OF_ASC_NODE><ARG_OF_PERICENTER>169.9485</ARG_OF_PERICENTER><MEAN_ANOMALY>353.1003</MEAN_ANOMALY></meanElements><tleParameters><EPHEMERIS_TYPE>0</EPHEMERIS_TYPE><CLASSIFICATION_TYPE>U</CLASSIFICATION_TYPE><NORAD_CAT_ID>65140</NORAD_CAT_ID><ELEMENT_SET_NO>999</ELEMENT_SET_NO><REV_AT_EPOCH>221</REV_AT_EPOCH><BSTAR>.10621E-2</BSTAR><MEAN_MOTION_DOT>.36398E-3</MEAN_MOTION_DOT><MEAN_MOTION_DDOT>0</MEAN_MOTION_DDOT></tleParameters></data></segment></body></omm>
<omm id="CCSDS_OMM_VERS" version="2.0">
<header><CREATION_DATE/><ORIGINATOR/></header><body><segment><metadata><OBJECT_NAME>KUIPER-00103</OBJECT_NAME><OBJECT_ID>2025-171K</OBJECT_ID><CENTER_NAME>EARTH</CENTER_NAME><REF_FRAME>TEME</REF_FRAME><TIME_SYSTEM>UTC</TIME_SYSTEM><MEAN_ELEMENT_THEORY>SGP4</MEAN_ELEMENT_THEORY></metadata><data><meanElements><EPOCH>2025-08-19T04:00:01.999584</EPOCH><MEAN_MOTION>15.35161171</MEAN_MOTION><ECCENTRICITY>.0005452</ECCENTRICITY><INCLINATION>51.8765</INCLINATION><RA_OF_ASC_NODE>7.8280</RA_OF_ASC_NODE><ARG_OF_PERICENTER>167.4868</ARG_OF_PERICENTER><MEAN_ANOMALY>359.1164</MEAN_ANOMALY></meanElements><tleParameters><EPHEMERIS_TYPE>0</EPHEMERIS_TYPE><CLASSIFICATION_TYPE>U</CLASSIFICATION_TYPE><NORAD_CAT_ID>65141</NORAD_CAT_ID><ELEMENT_SET_NO>999</ELEMENT_SET_NO><REV_AT_EPOCH>210</REV_AT_EPOCH><BSTAR>.11312E-2</BSTAR><MEAN_MOTION_DOT>.39032E-3</MEAN_MOTION_DOT><MEAN_MOTION_DDOT>0</MEAN_MOTION_DDOT></tleParameters></data></segment></body></omm>

</ndm>
