KUIPER-00095            
1 65134U 25171C   25231.16668981  .00036241  00000+0  10570-2 0  9993
2 65134  51.8768   7.8391 0005500 173.9180 348.1049 15.34997048  1351
KUIPER-00096            
1 65135U 25171D   25231.58335648 -.00007789  00000+0 -21311-3 0  9994
2 65135  51.8766   5.8176 0005467 165.1333 147.4788 15.35263230  2276
KUIPER-00097            
1 65136U 25171E   25231.16668981  .00037256  00000+0  10883-2 0  9999
2 65136  51.8768   7.8428 0005546 176.3822 343.8143 15.34934721  1439
KUIPER-00098            
1 65137U 25171F   25231.16668981  .00037143  00000+0  10611-2 0  9994
2 65137  51.8773   7.8020 0006439 149.3263  31.4942 15.35630333  1581
KUIPER-00099            
1 65138U 25171G   25231.16668981  .00039134  00000+0  11229-2 0  9993
2 65138  51.8775   7.8149 0006177 154.3541  21.1037 15.35469576  1401
KUIPER-00100            
1 65139U 25171H   25231.16668981  .00036844  00000+0  10639-2 0  9993
2 65139  51.8767   7.8194 0005887 159.8057  10.9525 15.35301402  1706
KUIPER-00102            
1 65140U 25171J   25231.16668981  .00036398  00000+0  10621-2 0  9990
2 65140  51.8764   7.8353 0005354 169.9485 353.1003 15.34980169  2210
KUIPER-00103            
1 65141U 25171K   25231.16668981  .00039032  00000+0  11312-2 0  9997
2 65141  51.8765   7.8280 0005452 167.4868 359.1164 15.35161171  2105
